{
  "type": "FeatureCollection",
  "features": [
    {
      "type": "Feature",
      "properties": {
        "norad_id": 41330,
        "name": "COSMOS 2514 (751)",
        "group": "gnss",
        "lat": -20.600726597258472,
        "lon": 149.09882190943335,
        "alt_km": 19104.427847194856,
        "timestamp": "2025-12-22T04:03:39.411760+00:00",
        "meta_object_name": "COSMOS 2514 (751)",
        "meta_object_id": "2016-008A",
        "meta_epoch": "2025-12-21T10:27:05.552352",
        "meta_mean_motion": 2.13102677,
        "meta_eccentricity": 0.0011723,
        "meta_inclination": 65.1288,
        "meta_ra_of_asc_node": 319.1063,
        "meta_arg_of_pericenter": 220.1275,
        "meta_mean_anomaly": 139.7798,
        "meta_ephemeris_type": 0,
        "meta_classification_type": "U",
        "meta_norad_cat_id": 41330,
        "meta_element_set_no": 999,
        "meta_rev_at_epoch": 7683,
        "meta_bstar": 0,
        "meta_mean_motion_dot": -4.6e-07,
        "meta_mean_motion_ddot": 0,
        "tle_line1": "1 41330U 16008A   25355.43548093 -.00000046  00000+0  00000+0 0  9991",
        "tle_line2": "2 41330  65.1288 319.1063 0011723 220.1275 139.7798  2.13102677 76836"
      },
      "geometry": {
        "type": "Point",
        "coordinates": [
          149.09882190943335,
          -20.600726597258472
        ]
      }
    },
    {
      "type": "Feature",
      "properties": {
        "norad_id": 41384,
        "name": "IRNSS-1F",
        "group": "gnss",
        "lat": 4.8730197038163565,
        "lon": -175.9254530504048,
        "alt_km": 35798.17307207006,
        "timestamp": "2025-12-22T04:03:39.411772+00:00",
        "meta_object_name": "IRNSS-1F",
        "meta_object_id": "2016-015A",
        "meta_epoch": "2025-12-21T11:38:26.700000",
        "meta_mean_motion": 1.0027691,
        "meta_eccentricity": 0.0022665,
        "meta_inclination": 4.903,
        "meta_ra_of_asc_node": 101.0809,
        "meta_arg_of_pericenter": 181.7782,
        "meta_mean_anomaly": 14.5073,
        "meta_ephemeris_type": 0,
        "meta_classification_type": "U",
        "meta_norad_cat_id": 41384,
        "meta_element_set_no": 999,
        "meta_rev_at_epoch": 3588,
        "meta_bstar": 0,
        "meta_mean_motion_dot": 1.77e-06,
        "meta_mean_motion_ddot": 0,
        "tle_line1": "1 41384U 16015A   25355.48503125  .00000177  00000+0  00000+0 0  9994",
        "tle_line2": "2 41384   4.9030 101.0809 0022665 181.7782  14.5073  1.00276910 35882"
      },
      "geometry": {
        "type": "Point",
        "coordinates": [
          -175.9254530504048,
          4.8730197038163565
        ]
      }
    },
    {
      "type": "Feature",
      "properties": {
        "norad_id": 41434,
        "name": "BEIDOU-2 IGSO-6 (C13)",
        "group": "gnss",
        "lat": -21.65047498638939,
        "lon": -126.89603234402101,
        "alt_km": 35549.86273575885,
        "timestamp": "2025-12-22T04:03:39.411786+00:00",
        "meta_object_name": "BEIDOU-2 IGSO-6 (C13)",
        "meta_object_id": "2016-021A",
        "meta_epoch": "2025-12-18T14:33:38.837664",
        "meta_mean_motion": 1.00292299,
        "meta_eccentricity": 0.00610054,
        "meta_inclination": 59.9732,
        "meta_ra_of_asc_node": 39.8392,
        "meta_arg_of_pericenter": 230.2031,
        "meta_mean_anomaly": 129.1398,
        "meta_ephemeris_type": 0,
        "meta_classification_type": "U",
        "meta_norad_cat_id": 41434,
        "meta_element_set_no": 999,
        "meta_rev_at_epoch": 3566,
        "meta_bstar": 0,
        "meta_mean_motion_dot": -1.41e-06,
        "meta_mean_motion_ddot": 0,
        "tle_line1": "1 41434U 16021A   25352.60669951 -.00000141  00000+0  00000+0 0  9990",
        "tle_line2": "2 41434  59.9732  39.8392 0061005 230.2031 129.1398  1.00292299 35667"
      },
      "geometry": {
        "type": "Point",
        "coordinates": [
          -126.89603234402101,
          -21.65047498638939
        ]
      }
    },
    {
      "type": "Feature",
      "properties": {
        "norad_id": 41469,
        "name": "IRNSS-1G",
        "group": "gnss",
        "lat": 0.00982440512761952,
        "lon": -78.59172291103512,
        "alt_km": 35794.6399267958,
        "timestamp": "2025-12-22T04:03:39.411801+00:00",
        "meta_object_name": "IRNSS-1G",
        "meta_object_id": "2016-027A",
        "meta_epoch": "2025-12-21T20:26:21.664032",
        "meta_mean_motion": 1.00275643,
        "meta_eccentricity": 0.0002621,
        "meta_inclination": 4.7568,
        "meta_ra_of_asc_node": 101.8634,
        "meta_arg_of_pericenter": 329.136,
        "meta_mean_anomaly": 95.7807,
        "meta_ephemeris_type": 0,
        "meta_classification_type": "U",
        "meta_norad_cat_id": 41469,
        "meta_element_set_no": 999,
        "meta_rev_at_epoch": 3540,
        "meta_bstar": 0,
        "meta_mean_motion_dot": -3.15e-06,
        "meta_mean_motion_ddot": 0,
        "tle_line1": "1 41469U 16027A   25355.85163963 -.00000315  00000+0  00000+0 0  9999",
        "tle_line2": "2 41469   4.7568 101.8634 0002621 329.1360  95.7807  1.00275643 35400"
      },
      "geometry": {
        "type": "Point",
        "coordinates": [
          -78.59172291103512,
          0.00982440512761952
        ]
      }
    },
    {
      "type": "Feature",
      "properties": {
        "norad_id": 41549,
        "name": "GSAT0211 (GALILEO 14)",
        "group": "gnss",
        "lat": -32.03430133560128,
        "lon": -159.25744999076707,
        "alt_km": 23219.836033562948,
        "timestamp": "2025-12-22T04:03:39.411813+00:00",
        "meta_object_name": "GSAT0211 (GALILEO 14)",
        "meta_object_id": "2016-030A",
        "meta_epoch": "2025-12-20T11:24:03.549312",
        "meta_mean_motion": 1.70473323,
        "meta_eccentricity": 0.00041244,
        "meta_inclination": 55.1495,
        "meta_ra_of_asc_node": 226.6105,
        "meta_arg_of_pericenter": 17.8253,
        "meta_mean_anomaly": 342.2987,
        "meta_ephemeris_type": 0,
        "meta_classification_type": "U",
        "meta_norad_cat_id": 41549,
        "meta_element_set_no": 999,
        "meta_rev_at_epoch": 5962,
        "meta_bstar": 0,
        "meta_mean_motion_dot": 7.1e-07,
        "meta_mean_motion_ddot": 0,
        "tle_line1": "1 41549U 16030A   25354.47504108  .00000071  00000+0  00000+0 0  9997",
        "tle_line2": "2 41549  55.1495 226.6105 0004124  17.8253 342.2987  1.70473323 59620"
      },
      "geometry": {
        "type": "Point",
        "coordinates": [
          -159.25744999076707,
          -32.03430133560128
        ]
      }
    },
    {
      "type": "Feature",
      "properties": {
        "norad_id": 41550,
        "name": "GSAT0210 (GALILEO 13)",
        "group": "gnss",
        "lat": 14.835205636652791,
        "lon": 35.946604185715955,
        "alt_km": 23219.562270563525,
        "timestamp": "2025-12-22T04:03:39.411829+00:00",
        "meta_object_name": "GSAT0210 (GALILEO 13)",
        "meta_object_id": "2016-030B",
        "meta_epoch": "2025-12-18T23:20:38.714784",
        "meta_mean_motion": 1.70473668,
        "meta_eccentricity": 7.917e-05,
        "meta_inclination": 55.1496,
        "meta_ra_of_asc_node": 226.6499,
        "meta_arg_of_pericenter": 227.6007,
        "meta_mean_anomaly": 132.5002,
        "meta_ephemeris_type": 0,
        "meta_classification_type": "U",
        "meta_norad_cat_id": 41550,
        "meta_element_set_no": 999,
        "meta_rev_at_epoch": 5959,
        "meta_bstar": 0,
        "meta_mean_motion_dot": 6.5e-07,
        "meta_mean_motion_ddot": 0,
        "tle_line1": "1 41550U 16030B   25352.97267031  .00000065  00000+0  00000+0 0  9996",
        "tle_line2": "2 41550  55.1496 226.6499 0000791 227.6007 132.5002  1.70473668 59599"
      },
      "geometry": {
        "type": "Point",
        "coordinates": [
          35.946604185715955,
          14.835205636652791
        ]
      }
    },
    {
      "type": "Feature",
      "properties": {
        "norad_id": 41586,
        "name": "BEIDOU-2 G7 (C03)",
        "group": "gnss",
        "lat": -0.4703684276415545,
        "lon": -97.67992610143985,
        "alt_km": 35807.81250291386,
        "timestamp": "2025-12-22T04:03:39.411841+00:00",
        "meta_object_name": "BEIDOU-2 G7 (C03)",
        "meta_object_id": "2016-037A",
        "meta_epoch": "2025-12-19T15:57:04.317984",
        "meta_mean_motion": 1.00271972,
        "meta_eccentricity": 0.0005143,
        "meta_inclination": 1.7733,
        "meta_ra_of_asc_node": 67.8469,
        "meta_arg_of_pericenter": 2.9481,
        "meta_mean_anomaly": 7.4377,
        "meta_ephemeris_type": 0,
        "meta_classification_type": "U",
        "meta_norad_cat_id": 41586,
        "meta_element_set_no": 999,
        "meta_rev_at_epoch": 509,
        "meta_bstar": 0,
        "meta_mean_motion_dot": -3.3e-06,
        "meta_mean_motion_ddot": 0,
        "tle_line1": "1 41586U 16037A   25353.66463331 -.00000330  00000+0  00000+0 0  9996",
        "tle_line2": "2 41586   1.7733  67.8469 0005143   2.9481   7.4377  1.00271972  5095"
      },
      "geometry": {
        "type": "Point",
        "coordinates": [
          -97.67992610143985,
          -0.4703684276415545
        ]
      }
    }
  ]
}